IRIDIUM 159             
1 43578U 18061K   26024.48307485  .00000314  00000+0  10502-3 0  9994
2 43578  86.3984 116.8143 0002094 100.1478 259.9954 14.34221797392789
IRIDIUM 180             
1 43922U 19002A   26024.48257409  .00000448  00000+0  15304-3 0  9996
2 43922  86.3930  53.6618 0002201  95.5714 264.5732 14.34220954368398
IRIDIUM 176             
1 43923U 19002B   26024.47527091  .00001575  00000+0  24582-3 0  9993
2 43923  86.6052  53.6291 0002630  91.0007 269.1511 14.72270497378101
IRIDIUM 168             
1 43924U 19002C   26024.47623720  .00000133  00000+0  40497-4 0  9993
2 43924  86.3934  53.7380 0002217  91.9286 268.2163 14.34216251368374
IRIDIUM 173             
1 43925U 19002D   26024.46354823  .00000186  00000+0  59356-4 0  9990
2 43925  86.3927  53.6374 0002351  92.5128 267.6337 14.34215860368359
IRIDIUM 169             
1 43926U 19002E   26024.41090653  .00000286  00000+0  87017-4 0  9990
2 43926  86.4204  85.3230 0003052  86.9464 273.2084 14.38606166369553
IRIDIUM 172             
1 43927U 19002F   26024.45720721  .00000193  00000+0  61978-4 0  9996
2 43927  86.3930  53.6477 0002159  97.2068 262.9373 14.34217435368369
IRIDIUM 175             
1 43928U 19002G   26024.40262794  .00001785  00000+0  27920-3 0  9999
2 43928  86.1526 353.6626 0001891  58.2402 301.8999 14.72236685378086
